QIANFAN-69              
1 62799U 25016Q   26061.90890789  .00000077  00000+0  10054-3 0  9998
2 62799  88.9669  94.6559 0017892 111.6172 248.6888 13.50993411 58109
QIANFAN-70              
1 62800U 25016R   26061.99937306  .00000073  00000+0  94007-4 0  9994
2 62800  88.9690  94.8020 0017546 102.8750 257.4363 13.50996950 58074
QIANFAN-71              
1 62801U 25016S   26061.92113705  .00000066  00000+0  83553-4 0  9993
2 62801  88.9684  94.7847 0017771 114.7200 245.5803 13.50996397 58067
QIANFAN-72              
1 62802U 25016T   26061.93760369  .00000061  00000+0  75823-4 0  9995
2 62802  88.9674  94.7885 0020942 121.5603 238.7596 13.50996078 58054
QIANFAN-73              
1 63159U 25046A   26061.89040021  .00000157  00000+0  22467-3 0  9996
2 63159  88.9765 311.7458 0013124 252.0360 107.9361 13.50997425 58237
QIANFAN-74              
1 63160U 25046B   26061.87400183  .00000205  00000+0  29855-3 0  9997
2 63160  88.9765 311.6363 0001884  78.0470 282.0892 13.50997203 58295
QIANFAN-75              
1 63161U 25046C   26061.93520626  .00000189  00000+0  27432-3 0  9990
2 63161  88.9767 311.8648 0014321 255.5375 104.4187 13.51001001 58176
QIANFAN-76              
1 63162U 25046D   26061.93155875  .00000202  00000+0  29439-3 0  9996
2 63162  88.9766 311.8452 0011872 256.3012 103.6817 13.51013399 58189
QIANFAN-77              
1 63163U 25046E   26061.88554126  .00000411  00000+0  28906-3 0  9993
2 63163  88.9762 309.1985 0014172 183.2880 176.8206 13.96172287 59630
QIANFAN-78              
1 63164U 25046F   26061.89863439  .00000206  00000+0  30126-3 0  9994
2 63164  88.9765 311.7119 0013211 259.1010 100.8654 13.50997508 58255
QIANFAN-79              
1 63165U 25046G   26061.92759704  .00000193  00000+0  28111-3 0  9994
2 63165  88.9769 311.8195 0013060 257.2338 102.7354 13.51007716 58206
QIANFAN-80              
1 63166U 25046H   26061.94387438  .00000192  00000+0  27843-3 0  9998
2 63166  88.9766 311.5226 0011904 261.9716  98.0085 13.50997305 58369
QIANFAN-81              
1 63167U 25046J   26061.92199863  .00000154  00000+0  22070-3 0  9995
2 63167  88.9766 311.5927 0012943 249.6606 110.3155 13.50983174 58313
QIANFAN-82              
1 63168U 25046K   26061.88219978  .00000180  00000+0  26006-3 0  9993
2 63168  88.9766 311.6407 0011024 257.9065 102.0851 13.50998660 58292
QIANFAN-83              
1 63169U 25046L   26061.92346177  .00000285  00000+0  35429-3 0  9996
2 63169  88.9766 311.2554 0012363 235.4305 124.5687 13.62019368 58510
QIANFAN-84              
1 63170U 25046M   26061.90995162  .00000003  00000+0 -13470-4 0  9992
2 63170  88.9766 311.7702 0013978 253.5863 106.3752 13.50972638 58229
QIANFAN-85              
1 63171U 25046N   26061.90687327  .00000182  00000+0  26324-3 0  9992
2 63171  88.9765 311.6422 0011428 256.4500 103.5378 13.51001369 58290
