[{"OBJECT_NAME":"QIANFAN-69","OBJECT_ID":"2025-016Q","EPOCH":"2026-03-02T21:48:49.641696","MEAN_MOTION":13.50993411,"ECCENTRICITY":0.00178924,"INCLINATION":88.9669,"RA_OF_ASC_NODE":94.6559,"ARG_OF_PERICENTER":111.6172,"MEAN_ANOMALY":248.6888,"EPHEMERIS_TYPE":0,"CLASSIFICATION_TYPE":"U","NORAD_CAT_ID":62799,"ELEMENT_SET_NO":999,"REV_AT_EPOCH":5810,"BSTAR":0.00010054276,"MEAN_MOTION_DOT":7.7e-7,"MEAN_MOTION_DDOT":0},{"OBJECT_NAME":"QIANFAN-70","OBJECT_ID":"2025-016R","EPOCH":"2026-03-02T23:59:05.832384","MEAN_MOTION":13.5099695,"ECCENTRICITY":0.00175468,"INCLINATION":88.969,"RA_OF_ASC_NODE":94.802,"ARG_OF_PERICENTER":102.875,"MEAN_ANOMALY":257.4363,"EPHEMERIS_TYPE":0,"CLASSIFICATION_TYPE":"U","NORAD_CAT_ID":62800,"ELEMENT_SET_NO":999,"REV_AT_EPOCH":5807,"BSTAR":9.4007123e-5,"MEAN_MOTION_DOT":7.3e-7,"MEAN_MOTION_DDOT":0},{"OBJECT_NAME":"QIANFAN-71","OBJECT_ID":"2025-016S","EPOCH":"2026-03-02T22:06:26.241120","MEAN_MOTION":13.50996397,"ECCENTRICITY":0.00177711,"INCLINATION":88.9684,"RA_OF_ASC_NODE":94.7847,"ARG_OF_PERICENTER":114.72,"MEAN_ANOMALY":245.5803,"EPHEMERIS_TYPE":0,"CLASSIFICATION_TYPE":"U","NORAD_CAT_ID":62801,"ELEMENT_SET_NO":999,"REV_AT_EPOCH":5806,"BSTAR":8.3553093e-5,"MEAN_MOTION_DOT":6.6e-7,"MEAN_MOTION_DDOT":0},{"OBJECT_NAME":"QIANFAN-72","OBJECT_ID":"2025-016T","EPOCH":"2026-03-02T22:30:08.958816","MEAN_MOTION":13.50996078,"ECCENTRICITY":0.00209427,"INCLINATION":88.9674,"RA_OF_ASC_NODE":94.7885,"ARG_OF_PERICENTER":121.5603,"MEAN_ANOMALY":238.7596,"EPHEMERIS_TYPE":0,"CLASSIFICATION_TYPE":"U","NORAD_CAT_ID":62802,"ELEMENT_SET_NO":999,"REV_AT_EPOCH":5805,"BSTAR":7.5822948e-5,"MEAN_MOTION_DOT":6.1e-7,"MEAN_MOTION_DDOT":0},{"OBJECT_NAME":"QIANFAN-73","OBJECT_ID":"2025-046A","EPOCH":"2026-03-02T21:22:10.578144","MEAN_MOTION":13.50997425,"ECCENTRICITY":0.00131247,"INCLINATION":88.9765,"RA_OF_ASC_NODE":311.7458,"ARG_OF_PERICENTER":252.036,"MEAN_ANOMALY":107.9361,"EPHEMERIS_TYPE":0,"CLASSIFICATION_TYPE":"U","NORAD_CAT_ID":63159,"ELEMENT_SET_NO":999,"REV_AT_EPOCH":5823,"BSTAR":0.00022466714,"MEAN_MOTION_DOT":1.57e-6,"MEAN_MOTION_DDOT":0},{"OBJECT_NAME":"QIANFAN-74","OBJECT_ID":"2025-046B","EPOCH":"2026-03-02T20:58:33.758112","MEAN_MOTION":13.50997203,"ECCENTRICITY":0.00018842,"INCLINATION":88.9765,"RA_OF_ASC_NODE":311.6363,"ARG_OF_PERICENTER":78.047,"MEAN_ANOMALY":282.0892,"EPHEMERIS_TYPE":0,"CLASSIFICATION_TYPE":"U","NORAD_CAT_ID":63160,"ELEMENT_SET_NO":999,"REV_AT_EPOCH":5829,"BSTAR":0.00029855211,"MEAN_MOTION_DOT":2.05e-6,"MEAN_MOTION_DDOT":0},{"OBJECT_NAME":"QIANFAN-75","OBJECT_ID":"2025-046C","EPOCH":"2026-03-02T22:26:41.820864","MEAN_MOTION":13.51001001,"ECCENTRICITY":0.00143218,"INCLINATION":88.9767,"RA_OF_ASC_NODE":311.8648,"ARG_OF_PERICENTER":255.5375,"MEAN_ANOMALY":104.4187,"EPHEMERIS_TYPE":0,"CLASSIFICATION_TYPE":"U","NORAD_CAT_ID":63161,"ELEMENT_SET_NO":999,"REV_AT_EPOCH":5817,"BSTAR":0.00027432296,"MEAN_MOTION_DOT":1.89e-6,"MEAN_MOTION_DDOT":0},{"OBJECT_NAME":"QIANFAN-76","OBJECT_ID":"2025-046D","EPOCH":"2026-03-02T22:21:26.676000","MEAN_MOTION":13.51013399,"ECCENTRICITY":0.00118727,"INCLINATION":88.9766,"RA_OF_ASC_NODE":311.8452,"ARG_OF_PERICENTER":256.3012,"MEAN_ANOMALY":103.6817,"EPHEMERIS_TYPE":0,"CLASSIFICATION_TYPE":"U","NORAD_CAT_ID":63162,"ELEMENT_SET_NO":999,"REV_AT_EPOCH":5818,"BSTAR":0.00029438676,"MEAN_MOTION_DOT":2.02e-6,"MEAN_MOTION_DDOT":0},{"OBJECT_NAME":"QIANFAN-77","OBJECT_ID":"2025-046E","EPOCH":"2026-03-02T21:15:10.764864","MEAN_MOTION":13.96172287,"ECCENTRICITY":0.00141727,"INCLINATION":88.9762,"RA_OF_ASC_NODE":309.1985,"ARG_OF_PERICENTER":183.288,"MEAN_ANOMALY":176.8206,"EPHEMERIS_TYPE":0,"CLASSIFICATION_TYPE":"U","NORAD_CAT_ID":63163,"ELEMENT_SET_NO":999,"REV_AT_EPOCH":5963,"BSTAR":0.00028905616,"MEAN_MOTION_DOT":4.11e-6,"MEAN_MOTION_DDOT":0},{"OBJECT_NAME":"QIANFAN-78","OBJECT_ID":"2025-046F","EPOCH":"2026-03-02T21:34:02.011296","MEAN_MOTION":13.50997508,"ECCENTRICITY":0.00132114,"INCLINATION":88.9765,"RA_OF_ASC_NODE":311.7119,"ARG_OF_PERICENTER":259.101,"MEAN_ANOMALY":100.8654,"EPHEMERIS_TYPE":0,"CLASSIFICATION_TYPE":"U","NORAD_CAT_ID":63164,"ELEMENT_SET_NO":999,"REV_AT_EPOCH":5825,"BSTAR":0.000301265,"MEAN_MOTION_DOT":2.06e-6,"MEAN_MOTION_DDOT":0},{"OBJECT_NAME":"QIANFAN-79","OBJECT_ID":"2025-046G","EPOCH":"2026-03-02T22:15:44.384256","MEAN_MOTION":13.51007716,"ECCENTRICITY":0.00130606,"INCLINATION":88.9769,"RA_OF_ASC_NODE":311.8195,"ARG_OF_PERICENTER":257.2338,"MEAN_ANOMALY":102.7354,"EPHEMERIS_TYPE":0,"CLASSIFICATION_TYPE":"U","NORAD_CAT_ID":63165,"ELEMENT_SET_NO":999,"REV_AT_EPOCH":5820,"BSTAR":0.00028111155,"MEAN_MOTION_DOT":1.93e-6,"MEAN_MOTION_DDOT":0},{"OBJECT_NAME":"QIANFAN-80","OBJECT_ID":"2025-046H","EPOCH":"2026-03-02T22:39:10.746432","MEAN_MOTION":13.50997305,"ECCENTRICITY":0.0011904,"INCLINATION":88.9766,"RA_OF_ASC_NODE":311.5226,"ARG_OF_PERICENTER":261.9716,"MEAN_ANOMALY":98.0085,"EPHEMERIS_TYPE":0,"CLASSIFICATION_TYPE":"U","NORAD_CAT_ID":63166,"ELEMENT_SET_NO":999,"REV_AT_EPOCH":5836,"BSTAR":0.00027842965,"MEAN_MOTION_DOT":1.92e-6,"MEAN_MOTION_DDOT":0},{"OBJECT_NAME":"QIANFAN-81","OBJECT_ID":"2025-046J","EPOCH":"2026-03-02T22:07:40.681632","MEAN_MOTION":13.50983174,"ECCENTRICITY":0.00129431,"INCLINATION":88.9766,"RA_OF_ASC_NODE":311.5927,"ARG_OF_PERICENTER":249.6606,"MEAN_ANOMALY":110.3155,"EPHEMERIS_TYPE":0,"CLASSIFICATION_TYPE":"U","NORAD_CAT_ID":63167,"ELEMENT_SET_NO":999,"REV_AT_EPOCH":5831,"BSTAR":0.00022069921,"MEAN_MOTION_DOT":1.54e-6,"MEAN_MOTION_DDOT":0},{"OBJECT_NAME":"QIANFAN-82","OBJECT_ID":"2025-046K","EPOCH":"2026-03-02T21:10:22.060992","MEAN_MOTION":13.5099866,"ECCENTRICITY":0.00110245,"INCLINATION":88.9766,"RA_OF_ASC_NODE":311.6407,"ARG_OF_PERICENTER":257.9065,"MEAN_ANOMALY":102.0851,"EPHEMERIS_TYPE":0,"CLASSIFICATION_TYPE":"U","NORAD_CAT_ID":63168,"ELEMENT_SET_NO":999,"REV_AT_EPOCH":5829,"BSTAR":0.00026006051,"MEAN_MOTION_DOT":1.8e-6,"MEAN_MOTION_DDOT":0},{"OBJECT_NAME":"QIANFAN-83","OBJECT_ID":"2025-046L","EPOCH":"2026-03-02T22:09:47.096928","MEAN_MOTION":13.62019368,"ECCENTRICITY":0.00123638,"INCLINATION":88.9766,"RA_OF_ASC_NODE":311.2554,"ARG_OF_PERICENTER":235.4305,"MEAN_ANOMALY":124.5687,"EPHEMERIS_TYPE":0,"CLASSIFICATION_TYPE":"U","NORAD_CAT_ID":63169,"ELEMENT_SET_NO":999,"REV_AT_EPOCH":5851,"BSTAR":0.00035428959,"MEAN_MOTION_DOT":2.85e-6,"MEAN_MOTION_DDOT":0},{"OBJECT_NAME":"QIANFAN-84","OBJECT_ID":"2025-046M","EPOCH":"2026-03-02T21:50:19.819968","MEAN_MOTION":13.50972638,"ECCENTRICITY":0.00139788,"INCLINATION":88.9766,"RA_OF_ASC_NODE":311.7702,"ARG_OF_PERICENTER":253.5863,"MEAN_ANOMALY":106.3752,"EPHEMERIS_TYPE":0,"CLASSIFICATION_TYPE":"U","NORAD_CAT_ID":63170,"ELEMENT_SET_NO":999,"REV_AT_EPOCH":5822,"BSTAR":-1.3469681e-5,"MEAN_MOTION_DOT":3.0e-8,"MEAN_MOTION_DDOT":0},{"OBJECT_NAME":"QIANFAN-85","OBJECT_ID":"2025-046N","EPOCH":"2026-03-02T21:45:53.850528","MEAN_MOTION":13.51001369,"ECCENTRICITY":0.00114284,"INCLINATION":88.9765,"RA_OF_ASC_NODE":311.6422,"ARG_OF_PERICENTER":256.45,"MEAN_ANOMALY":103.5378,"EPHEMERIS_TYPE":0,"CLASSIFICATION_TYPE":"U","NORAD_CAT_ID":63171,"ELEMENT_SET_NO":999,"REV_AT_EPOCH":5829,"BSTAR":0.00026324448,"MEAN_MOTION_DOT":1.82e-6,"MEAN_MOTION_DDOT":0}]
